CUBEBUG-2 (LO-74)       
1 39440U 13066AA  26201.28541108  .00001943  00000+0  18271-3 0  9994
2 39440  97.8921 150.4123 0055528 278.1054  81.3869 14.93988121681934
FUNCUBE-1 (AO-73)       
1 39444U 13066AE  26201.19691769  .00004467  00000+0  27558-3 0  9999
2 39444  97.8301 173.3445 0038051  91.4197 269.1391 15.09859978684649
UWE-3                   
1 39446U 13066AG  26200.83144104  .00002164  00000+0  18817-3 0  9997
2 39446  97.8723 157.1335 0047670 208.5998 151.2608 14.97218739682464
UNISAT-6                
1 40012U 14033C   26201.21089363  .00001135  00000+0  12656-3 0  9993
2 40012  97.7916 353.3514 0043798 320.9353  38.8703 14.88378362651076
DUCHIFAT-1              
1 40021U 14033M   26201.13688782  .00099013  00000+0  75275-3 0  9992
2 40021  98.0410 265.1222 0003429 227.9853 132.1117 15.71988484660918
QB50P1                  
1 40025U 14033R   26201.03202993  .00004346  00000+0  21292-3 0  9996
2 40025  98.0972 214.4928 0010513 110.5893 249.6468 15.18708867658015
LILACSAT-2              
1 40908U 15049K   26201.34828841  .00011570  00000+0  19045-3 0  9994
2 40908  97.4626 239.4686 0008603 126.4633 233.7414 15.52474213600898
FOX-1A (AO-85)          
1 40967U 15058D   26201.15052579  .00001891  00000+0  17611-3 0  9997
2 40967  64.7727 176.5310 0132767  43.9361 317.2215 14.91107360118481
CAS-2T & KS-1Q          
1 41847U 16066G   26201.13741454  .00000398  00000+0  64499-4 0  9998
2 41847  98.3810 276.4966 0341978  29.7840 332.2343 14.44775384509558
RADFXSAT (FOX-1B)       
1 43017U 17073E   26201.14517518  .00003253  00000+0  14349-3 0  9992
2 43017  97.4661  67.6884 0148448 214.2207 144.9390 15.13099239470379
DIWATA-2B               
1 43678U 18084H   26201.24548925  .00000856  00000+0  72937-4 0  9999
2 43678  98.1218  38.9021 0012567  68.7995 291.4568 15.00573393421173
ES'HAIL 2               
1 43700U 18090A   26201.26696252  .00000142  00000+0  00000+0 0  9996
2 43700   0.0206  79.9144 0002449  78.0088 262.0181  1.00274029 28003
FOX-1CLIFF (AO-95)      
1 43770U 18099N   26201.10375177  .00006244  00000+0  23587-3 0  9993
2 43770  97.4362 261.2401 0007658 220.0884 139.9791 15.27333167418246
ITASAT                  
1 43786U 18099AE  26201.08535022  .00003585  00000+0  17224-3 0  9990
2 43786  97.4008 251.9452 0011166 231.2773 128.7464 15.19415168417900
JY1SAT (JO-97)          
1 43803U 18099AX  26201.09914413  .00009671  00000+0  29048-3 0  9995
2 43803  97.4105 264.0674 0007193 143.5903 216.5831 15.34614501418672
UWE-4                   
1 43880U 18111E   26201.26534730  .00019451  00000+0  37308-3 0  9999
2 43880  97.5826 131.2291 0006925 175.7426 184.3884 15.48018071415893
TIANYAN 01              
1 44881U 19093C   26201.29658726  .00000830  00000+0  99570-4 0  9997
2 44881  97.7512 272.7194 0013108 344.6221  15.4595 14.86566358356336
RS-44 & BREEZE-KM R/B   
1 44909U 19096E   26201.31005523  .00000004  00000+0 -35039-4 0  9999
2 44909  82.5239 317.6966 0218422  67.0893 295.3101 12.79748858306589
SALSAT                  
1 46495U 20068K   26200.97640307  .00004107  00000+0  14329-3 0  9993
2 46495  97.8865 206.0496 0009725 176.0322 184.0997 15.30211220320374
XW-3 (CAS-9)            
1 50466U 21131B   26201.30605346  .00000183  00000+0  70048-4 0  9991
2 50466  98.4985 293.5172 0004243  17.1605 342.9726 14.41384073239886
GREENCUBE (IO-117)      
1 53109U 22080E   26201.17921782 -.00000003  00000+0  00000+0 0  9990
2 53109  70.1400 286.7734 0009088 282.4177  77.5466  6.42583323 94188
UMKA 1 (RS40S)          
1 57172U 23091G   26201.25111253  .00003210  00000+0  14705-3 0  9993
2 57172  97.5029 259.8253 0012526  12.5529 347.6016 15.21152777169034
CUBESX-HSE 3 (RS42S)    
1 57178U 23091N   26201.16671348  .00006890  00000+0  22565-3 0  9995
2 57178  97.5068 267.1857 0009174 343.2006  16.8930 15.31954844169478
MONITOR-3 (RS58S)       
1 57180U 23091Q   26201.13476016  .00005562  00000+0  20349-3 0  9993
2 57180  97.5061 264.8335 0010462 351.9326   8.1744 15.28426399169328
MONITOR-4 (RS57S)       
1 57182U 23091S   26201.17744102  .00005647  00000+0  20599-3 0  9994
2 57182  97.5054 264.8495 0010454 351.9756   8.1315 15.28514554169333
MONITOR-2 (RS39S)       
1 57184U 23091U   26201.24876030  .00002619  00000+0  12767-3 0  9994
2 57184  97.5051 259.3205 0010882   7.0005 353.1379 15.19179650168977
SVYATOBOR 1 (RS60S)     
1 57187U 23091X   26201.28547464  .00004614  00000+0  17625-3 0  9992
2 57187  97.5068 265.2942 0008217 345.7991  14.3016 15.27110336169360
VIZARD-METEO (RS38S)    
1 57189U 23091Z   26201.29545697  .00009241  00000+0  25778-3 0  9990
2 57189  97.5069 271.4652 0005283 317.5678  42.5157 15.36968617169776
POLYTECH-UNIVERSE 3 (R*)
1 57191U 23091AB  26201.27143321  .00002517  00000+0  12187-3 0  9998
2 57191  97.5026 258.8472 0015584  20.7119 339.4744 15.19392928168977
UTMN 2 (RS27S)          
1 57203U 23091AP  26201.29713241  .00006847  00000+0  21879-3 0  9996
2 57203  97.5065 268.9918 0006285 329.8109  30.2769 15.32771785169613
